{
  "norad_id": 52855,
  "name": "STARLINK-4209",
  "history": [
    {
      "epoch": "2026-04-13T01:36:34.470432Z",
      "apogee_km": 540.7666485286127,
      "perigee_km": 538.7044307245487,
      "latitude_deg": -4.702716490593783e-05,
      "longitude_deg": 4.388966100269469,
      "height_km": 540.5038766441987,
      "semi_major_axis_km": 6917.87253962658,
      "eccentricity": 0.00014905,
      "inclination_deg": 53.2165,
      "raan_deg": 229.7958,
      "arg_perigee_deg": 82.9184,
      "mean_anomaly_deg": 277.1977,
      "mean_motion_rev_day": 15.08842568
    },
    {
      "epoch": "2026-04-14T07:48:54.571104Z",
      "apogee_km": 540.7869419520957,
      "perigee_km": 538.796792175619,
      "latitude_deg": 3.505832310722817e-05,
      "longitude_deg": -95.58522386093037,
      "height_km": 540.6208609608383,
      "semi_major_axis_km": 6917.928867063857,
      "eccentricity": 0.00014384,
      "inclination_deg": 53.2173,
      "raan_deg": 224.1458,
      "arg_perigee_deg": 86.1631,
      "mean_anomaly_deg": 273.9526,
      "mean_motion_rev_day": 15.0882414
    },
    {
      "epoch": "2026-04-15T14:01:14.107584Z",
      "apogee_km": 540.6837858456947,
      "perigee_km": 538.817339781247,
      "latitude_deg": -2.89713507444525e-05,
      "longitude_deg": 164.44063591791425,
      "height_km": 540.7096905665253,
      "semi_major_axis_km": 6917.887562813471,
      "eccentricity": 0.0001349,
      "inclination_deg": 53.2164,
      "raan_deg": 218.4936,
      "arg_perigee_deg": 93.902,
      "mean_anomaly_deg": 266.2126,
      "mean_motion_rev_day": 15.08837653
    },
    {
      "epoch": "2026-04-16T13:52:01.869888Z",
      "apogee_km": 540.7035179563873,
      "perigee_km": 538.918687345903,
      "latitude_deg": 2.2303479072745527e-05,
      "longitude_deg": 161.30372128029518,
      "height_km": 540.7531775027951,
      "semi_major_axis_km": 6917.948102651145,
      "eccentricity": 0.000129,
      "inclination_deg": 53.2149,
      "raan_deg": 214.035,
      "arg_perigee_deg": 92.9899,
      "mean_anomaly_deg": 267.1241,
      "mean_motion_rev_day": 15.08817847
    },
    {
      "epoch": "2026-04-17T13:42:49.262400Z",
      "apogee_km": 540.644499162785,
      "perigee_km": 538.908656287862,
      "latitude_deg": -6.67574410614439e-05,
      "longitude_deg": 158.16664684726487,
      "height_km": 540.6964051001858,
      "semi_major_axis_km": 6917.913577725323,
      "eccentricity": 0.00012546,
      "inclination_deg": 53.2162,
      "raan_deg": 209.5748,
      "arg_perigee_deg": 91.591,
      "mean_anomaly_deg": 268.5225,
      "mean_motion_rev_day": 15.08829142
    },
    {
      "epoch": "2026-04-18T13:33:35.950752Z",
      "apogee_km": 540.5731344303967,
      "perigee_km": 538.9031593699347,
      "latitude_deg": 4.604902300688677e-05,
      "longitude_deg": 155.03256357907372,
      "height_km": 540.634240304022,
      "semi_major_axis_km": 6917.875146900165,
      "eccentricity": 0.0001207,
      "inclination_deg": 53.2162,
      "raan_deg": 205.1145,
      "arg_perigee_deg": 90.0213,
      "mean_anomaly_deg": 270.0918,
      "mean_motion_rev_day": 15.08841715
    },
    {
      "epoch": "2026-04-19T13:24:22.704768Z",
      "apogee_km": 540.5933227379537,
      "perigee_km": 538.8583227420104,
      "latitude_deg": -5.9134335861094266e-05,
      "longitude_deg": 151.89844267835596,
      "height_km": 540.6539517044446,
      "semi_major_axis_km": 6917.862822739982,
      "eccentricity": 0.0001254,
      "inclination_deg": 53.2169,
      "raan_deg": 200.6546,
      "arg_perigee_deg": 92.135,
      "mean_anomaly_deg": 267.9785,
      "mean_motion_rev_day": 15.08845747
    },
    {
      "epoch": "2026-04-20T10:04:23.788992Z",
      "apogee_km": 540.4708930719689,
      "perigee_km": 539.0164778366589,
      "latitude_deg": 5.256127282556113e-05,
      "longitude_deg": -162.82095556492445,
      "height_km": 540.6862351605757,
      "semi_major_axis_km": 6917.880685454314,
      "eccentricity": 0.00010512,
      "inclination_deg": 53.2168,
      "raan_deg": 196.7884,
      "arg_perigee_deg": 93.6655,
      "mean_anomaly_deg": 266.4458,
      "mean_motion_rev_day": 15.08839903
    },
    {
      "epoch": "2026-04-21T11:30:33.112224Z",
      "apogee_km": 540.5162997866655,
      "perigee_km": 538.9319712294118,
      "latitude_deg": -2.6634423843521962e-05,
      "longitude_deg": 169.83691996708762,
      "height_km": 540.6294566535393,
      "semi_major_axis_km": 6917.861135508038,
      "eccentricity": 0.00011451,
      "inclination_deg": 53.2162,
      "raan_deg": 192.0298,
      "arg_perigee_deg": 90.6829,
      "mean_anomaly_deg": 269.4294,
      "mean_motion_rev_day": 15.08846299
    },
    {
      "epoch": "2026-04-22T11:21:20.409696Z",
      "apogee_km": 540.7519922646516,
      "perigee_km": 538.7505088360022,
      "latitude_deg": 4.7727334123558255e-06,
      "longitude_deg": 166.6972282214604,
      "height_km": 540.8911216318826,
      "semi_major_axis_km": 6917.888250550327,
      "eccentricity": 0.00014466,
      "inclination_deg": 53.2169,
      "raan_deg": 187.5665,
      "arg_perigee_deg": 104.1288,
      "mean_anomaly_deg": 255.9865,
      "mean_motion_rev_day": 15.08837428
    },
    {
      "epoch": "2026-04-23T04:50:34.964448Z",
      "apogee_km": 540.6204954599798,
      "perigee_km": 538.8708245776079,
      "latitude_deg": 2.1461483741812015e-05,
      "longitude_deg": -99.60048683398163,
      "height_km": 540.6980776052125,
      "semi_major_axis_km": 6917.882660018794,
      "eccentricity": 0.00012646,
      "inclination_deg": 53.2159,
      "raan_deg": 184.2976,
      "arg_perigee_deg": 93.7187,
      "mean_anomaly_deg": 266.395,
      "mean_motion_rev_day": 15.08839257
    },
    {
      "epoch": "2026-04-24T11:02:54.576960Z",
      "apogee_km": 540.4622089139912,
      "perigee_km": 539.0426580022458,
      "latitude_deg": 2.93332817108858e-05,
      "longitude_deg": 160.42760471914403,
      "height_km": 540.6684417147409,
      "semi_major_axis_km": 6917.889433458118,
      "eccentricity": 0.0001026,
      "inclination_deg": 53.2156,
      "raan_deg": 178.6479,
      "arg_perigee_deg": 91.6182,
      "mean_anomaly_deg": 268.4928,
      "mean_motion_rev_day": 15.08837041
    },
    {
      "epoch": "2026-04-25T10:53:41.915040Z",
      "apogee_km": 540.5399115171376,
      "perigee_km": 538.9667832521418,
      "latitude_deg": 3.4948717835166815e-05,
      "longitude_deg": 157.29112613272437,
      "height_km": 540.5190820606841,
      "semi_major_axis_km": 6917.890347384639,
      "eccentricity": 0.0001137,
      "inclination_deg": 53.2153,
      "raan_deg": 174.188,
      "arg_perigee_deg": 80.4815,
      "mean_anomaly_deg": 279.6306,
      "mean_motion_rev_day": 15.08836742
    },
    {
      "epoch": "2026-04-26T12:19:52.419360Z",
      "apogee_km": 540.5477599498035,
      "perigee_km": 538.963562530379,
      "latitude_deg": -1.6365740017862862e-05,
      "longitude_deg": 129.94429051266783,
      "height_km": 540.4813959882493,
      "semi_major_axis_km": 6917.892661240091,
      "eccentricity": 0.0001145,
      "inclination_deg": 53.215,
      "raan_deg": 169.4296,
      "arg_perigee_deg": 77.603,
      "mean_anomaly_deg": 282.509,
      "mean_motion_rev_day": 15.08835985
    },
    {
      "epoch": "2026-04-27T20:07:34.986432Z",
      "apogee_km": 540.5543008828627,
      "perigee_km": 538.9299828603516,
      "latitude_deg": -2.584839642101422e-05,
      "longitude_deg": 5.763740900398011,
      "height_km": 540.4600125781456,
      "semi_major_axis_km": 6917.879141871607,
      "eccentricity": 0.0001174,
      "inclination_deg": 53.2152,
      "raan_deg": 163.4822,
      "arg_perigee_deg": 77.3468,
      "mean_anomaly_deg": 282.7655,
      "mean_motion_rev_day": 15.08840408
    }
  ]
}